SL-8 R/B                
1 19257U 88053B   26105.24448358  .00000081  00000+0  34651-4 0  9991
2 19257  74.0486  45.0806 0021003 218.9895 296.5765 14.38938082981853
COSMOS 1975             
1 19573U 88093A   26104.93156477  .00003169  00000+0  11262-3 0  9991
2 19573  82.5170  81.2798 0012876  50.4526 309.7849 15.28548621 24942
SL-14 R/B               
1 19574U 88093B   26105.24429047  .00000217  00000+0  22203-4 0  9992
2 19574  82.5344   7.7380 0019094 278.0246 198.9932 14.85697466  6442
SL-16 R/B               
1 19650U 88102B   26105.28181774 -.00000107  00000+0 -29832-4 0  9999
2 19650  70.9989  74.4995 0016036 309.0444  50.9252 14.16160003932079
INTERCOSMOS 24          
1 20261U 89080A   26105.26304983  .00000267  00000+0  75429-4 0  9990
2 20261  82.6025  80.5820 1187281 207.8734 145.3594 12.59596645671409
SL-14 R/B               
1 20262U 89080C   26105.04286254  .00000228  00000+0  58681-4 0  9995
2 20262  82.5926 149.8584 1230963 101.6992 272.4556 12.50524342664697
DELTA 1 R/B             
1 20323U 89089B   26105.03953228  .00000160  00000+0  48205-4 0  9999
2 20323  97.0676 306.6884 0069288   8.9731 351.2688 14.50692200901005
ARIANE 40 R/B           
1 20443U 90005H   26105.15706404  .00000122  00000+0  52326-4 0  9994
2 20443  98.3013 164.7183 0011404  95.6861 264.5629 14.39894399898057
DELTA 2 R/B(1)          
1 20453U 90008B   26105.20895489  .00034178  00000+0  34106-3 0  9999
2 20453  35.6029 294.2882 0076181 242.3609 116.9379 15.60887773931837
COSMOS 2058             
1 20465U 90010A   26104.99278728  .00001478  00000+0  85157-4 0  9991
2 20465  82.4726  11.6613 0008949 201.1987 158.8874 15.11654489947728
SL-14 R/B               
1 20466U 90010B   26105.31001893  .00000259  00000+0  28369-4 0  9994
2 20466  82.5025 232.9850 0019940 174.9639 185.1780 14.83605102933918
SL-14 R/B               
1 20511U 90018B   26105.22790743  .00000197  00000+0  21804-4 0  9990
2 20511  82.5242 188.9490 0015501 336.5368  23.5137 14.82179458927995
HST                     
1 20580U 90037B   26105.21468105  .00003558  00000+0  11128-3 0  9991
2 20580  28.4728 150.7274 0002221 160.8426 199.2254 15.30050291778918
SL-16 R/B               
1 20625U 90046B   26105.31548757 -.00000290  00000+0 -12479-3 0  9996
2 20625  70.9993 220.9885 0016493 251.9031 108.0296 14.15016891853572
COSMOS 2084             
1 20663U 90055A   26105.24727557  .00001220  00000+0  97437-4 0  9997
2 20663  62.7891 210.8688 0011269 203.8170 156.2411 15.05866089941827
SL-6 R/B(2)             
1 20666U 90055D   26105.28037965  .00000799  00000+0  72112-4 0  9994
2 20666  62.7806 129.4011 0030772 354.8987   5.1794 15.03759613943699
SL-8 R/B                
1 20775U 90078B   26105.25177091  .00007968  00000+0  23485-3 0  9995
2 20775  82.9052 218.4003 0356647 250.4980 105.7400 14.90065470814743
