[{"OBJECT_NAME":"SL-8 R/B","OBJECT_ID":"1988-053B","EPOCH":"2026-04-15T05:52:03.381312","MEAN_MOTION":14.38938082,"ECCENTRICITY":0.00210039,"INCLINATION":74.0486,"RA_OF_ASC_NODE":45.0806,"ARG_OF_PERICENTER":218.9895,"MEAN_ANOMALY":296.5765,"EPHEMERIS_TYPE":0,"CLASSIFICATION_TYPE":"U","NORAD_CAT_ID":19257,"ELEMENT_SET_NO":999,"REV_AT_EPOCH":98185,"BSTAR":3.4650962e-5,"MEAN_MOTION_DOT":8.1e-7,"MEAN_MOTION_DDOT":0},{"OBJECT_NAME":"COSMOS 1975","OBJECT_ID":"1988-093A","EPOCH":"2026-04-14T22:21:27.196128","MEAN_MOTION":15.28548621,"ECCENTRICITY":0.0012876,"INCLINATION":82.517,"RA_OF_ASC_NODE":81.2798,"ARG_OF_PERICENTER":50.4526,"MEAN_ANOMALY":309.7849,"EPHEMERIS_TYPE":0,"CLASSIFICATION_TYPE":"U","NORAD_CAT_ID":19573,"ELEMENT_SET_NO":999,"REV_AT_EPOCH":2494,"BSTAR":0.00011262,"MEAN_MOTION_DOT":3.169e-5,"MEAN_MOTION_DDOT":0},{"OBJECT_NAME":"SL-14 R/B","OBJECT_ID":"1988-093B","EPOCH":"2026-04-15T05:51:46.696608","MEAN_MOTION":14.85697466,"ECCENTRICITY":0.00190942,"INCLINATION":82.5344,"RA_OF_ASC_NODE":7.738,"ARG_OF_PERICENTER":278.0246,"MEAN_ANOMALY":198.9932,"EPHEMERIS_TYPE":0,"CLASSIFICATION_TYPE":"U","NORAD_CAT_ID":19574,"ELEMENT_SET_NO":999,"REV_AT_EPOCH":644,"BSTAR":2.2202903e-5,"MEAN_MOTION_DOT":2.17e-6,"MEAN_MOTION_DDOT":0},{"OBJECT_NAME":"SL-16 R/B","OBJECT_ID":"1988-102B","EPOCH":"2026-04-15T06:45:49.052736","MEAN_MOTION":14.16160003,"ECCENTRICITY":0.00160361,"INCLINATION":70.9989,"RA_OF_ASC_NODE":74.4995,"ARG_OF_PERICENTER":309.0444,"MEAN_ANOMALY":50.9252,"EPHEMERIS_TYPE":0,"CLASSIFICATION_TYPE":"U","NORAD_CAT_ID":19650,"ELEMENT_SET_NO":999,"REV_AT_EPOCH":93207,"BSTAR":-2.9832041e-5,"MEAN_MOTION_DOT":-1.07e-6,"MEAN_MOTION_DDOT":0},{"OBJECT_NAME":"INTERCOSMOS 24","OBJECT_ID":"1989-080A","EPOCH":"2026-04-15T06:18:47.505312","MEAN_MOTION":12.59596645,"ECCENTRICITY":0.11872817,"INCLINATION":82.6025,"RA_OF_ASC_NODE":80.582,"ARG_OF_PERICENTER":207.8734,"MEAN_ANOMALY":145.3594,"EPHEMERIS_TYPE":0,"CLASSIFICATION_TYPE":"U","NORAD_CAT_ID":20261,"ELEMENT_SET_NO":999,"REV_AT_EPOCH":67140,"BSTAR":7.5429488e-5,"MEAN_MOTION_DOT":2.67e-6,"MEAN_MOTION_DDOT":0},{"OBJECT_NAME":"SL-14 R/B","OBJECT_ID":"1989-080C","EPOCH":"2026-04-15T01:01:43.323456","MEAN_MOTION":12.50524342,"ECCENTRICITY":0.12309635,"INCLINATION":82.5926,"RA_OF_ASC_NODE":149.8584,"ARG_OF_PERICENTER":101.6992,"MEAN_ANOMALY":272.4556,"EPHEMERIS_TYPE":0,"CLASSIFICATION_TYPE":"U","NORAD_CAT_ID":20262,"ELEMENT_SET_NO":999,"REV_AT_EPOCH":66469,"BSTAR":5.8680907e-5,"MEAN_MOTION_DOT":2.28e-6,"MEAN_MOTION_DDOT":0},{"OBJECT_NAME":"DELTA 1 R/B","OBJECT_ID":"1989-089B","EPOCH":"2026-04-15T00:56:55.588992","MEAN_MOTION":14.506922,"ECCENTRICITY":0.00692882,"INCLINATION":97.0676,"RA_OF_ASC_NODE":306.6884,"ARG_OF_PERICENTER":8.9731,"MEAN_ANOMALY":351.2688,"EPHEMERIS_TYPE":0,"CLASSIFICATION_TYPE":"U","NORAD_CAT_ID":20323,"ELEMENT_SET_NO":999,"REV_AT_EPOCH":90100,"BSTAR":4.8204822e-5,"MEAN_MOTION_DOT":1.6e-6,"MEAN_MOTION_DDOT":0},{"OBJECT_NAME":"ARIANE 40 R/B","OBJECT_ID":"1990-005H","EPOCH":"2026-04-15T03:46:10.333056","MEAN_MOTION":14.39894399,"ECCENTRICITY":0.00114049,"INCLINATION":98.3013,"RA_OF_ASC_NODE":164.7183,"ARG_OF_PERICENTER":95.6861,"MEAN_ANOMALY":264.5629,"EPHEMERIS_TYPE":0,"CLASSIFICATION_TYPE":"U","NORAD_CAT_ID":20443,"ELEMENT_SET_NO":999,"REV_AT_EPOCH":89805,"BSTAR":5.2325726e-5,"MEAN_MOTION_DOT":1.22e-6,"MEAN_MOTION_DDOT":0},{"OBJECT_NAME":"DELTA 2 R/B(1)","OBJECT_ID":"1990-008B","EPOCH":"2026-04-15T05:00:53.702496","MEAN_MOTION":15.60887773,"ECCENTRICITY":0.00761814,"INCLINATION":35.6029,"RA_OF_ASC_NODE":294.2882,"ARG_OF_PERICENTER":242.3609,"MEAN_ANOMALY":116.9379,"EPHEMERIS_TYPE":0,"CLASSIFICATION_TYPE":"U","NORAD_CAT_ID":20453,"ELEMENT_SET_NO":999,"REV_AT_EPOCH":93183,"BSTAR":0.00034105547,"MEAN_MOTION_DOT":0.00034178,"MEAN_MOTION_DDOT":0},{"OBJECT_NAME":"COSMOS 2058","OBJECT_ID":"1990-010A","EPOCH":"2026-04-14T23:49:36.820992","MEAN_MOTION":15.11654489,"ECCENTRICITY":0.00089491,"INCLINATION":82.4726,"RA_OF_ASC_NODE":11.6613,"ARG_OF_PERICENTER":201.1987,"MEAN_ANOMALY":158.8874,"EPHEMERIS_TYPE":0,"CLASSIFICATION_TYPE":"U","NORAD_CAT_ID":20465,"ELEMENT_SET_NO":999,"REV_AT_EPOCH":94772,"BSTAR":8.5156597e-5,"MEAN_MOTION_DOT":1.478e-5,"MEAN_MOTION_DDOT":0},{"OBJECT_NAME":"SL-14 R/B","OBJECT_ID":"1990-010B","EPOCH":"2026-04-15T07:26:25.635552","MEAN_MOTION":14.83605102,"ECCENTRICITY":0.00199409,"INCLINATION":82.5025,"RA_OF_ASC_NODE":232.985,"ARG_OF_PERICENTER":174.9639,"MEAN_ANOMALY":185.178,"EPHEMERIS_TYPE":0,"CLASSIFICATION_TYPE":"U","NORAD_CAT_ID":20466,"ELEMENT_SET_NO":999,"REV_AT_EPOCH":93391,"BSTAR":2.8369237e-5,"MEAN_MOTION_DOT":2.59e-6,"MEAN_MOTION_DDOT":0},{"OBJECT_NAME":"SL-14 R/B","OBJECT_ID":"1990-018B","EPOCH":"2026-04-15T05:28:11.201952","MEAN_MOTION":14.82179458,"ECCENTRICITY":0.00155013,"INCLINATION":82.5242,"RA_OF_ASC_NODE":188.949,"ARG_OF_PERICENTER":336.5368,"MEAN_ANOMALY":23.5137,"EPHEMERIS_TYPE":0,"CLASSIFICATION_TYPE":"U","NORAD_CAT_ID":20511,"ELEMENT_SET_NO":999,"REV_AT_EPOCH":92799,"BSTAR":2.1803665e-5,"MEAN_MOTION_DOT":1.97e-6,"MEAN_MOTION_DDOT":0},{"OBJECT_NAME":"HST","OBJECT_ID":"1990-037B","EPOCH":"2026-04-15T05:09:08.442720","MEAN_MOTION":15.30050291,"ECCENTRICITY":0.00022218,"INCLINATION":28.4728,"RA_OF_ASC_NODE":150.7274,"ARG_OF_PERICENTER":160.8426,"MEAN_ANOMALY":199.2254,"EPHEMERIS_TYPE":0,"CLASSIFICATION_TYPE":"U","NORAD_CAT_ID":20580,"ELEMENT_SET_NO":999,"REV_AT_EPOCH":77891,"BSTAR":0.00011128443,"MEAN_MOTION_DOT":3.558e-5,"MEAN_MOTION_DDOT":0},{"OBJECT_NAME":"SL-16 R/B","OBJECT_ID":"1990-046B","EPOCH":"2026-04-15T07:34:18.126048","MEAN_MOTION":14.15016891,"ECCENTRICITY":0.00164937,"INCLINATION":70.9993,"RA_OF_ASC_NODE":220.9885,"ARG_OF_PERICENTER":251.9031,"MEAN_ANOMALY":108.0296,"EPHEMERIS_TYPE":0,"CLASSIFICATION_TYPE":"U","NORAD_CAT_ID":20625,"ELEMENT_SET_NO":999,"REV_AT_EPOCH":85357,"BSTAR":-0.00012478667,"MEAN_MOTION_DOT":-2.9e-6,"MEAN_MOTION_DDOT":0},{"OBJECT_NAME":"COSMOS 2084","OBJECT_ID":"1990-055A","EPOCH":"2026-04-15T05:56:04.609248","MEAN_MOTION":15.05866089,"ECCENTRICITY":0.00112697,"INCLINATION":62.7891,"RA_OF_ASC_NODE":210.8688,"ARG_OF_PERICENTER":203.817,"MEAN_ANOMALY":156.2411,"EPHEMERIS_TYPE":0,"CLASSIFICATION_TYPE":"U","NORAD_CAT_ID":20663,"ELEMENT_SET_NO":999,"REV_AT_EPOCH":94182,"BSTAR":9.7436595e-5,"MEAN_MOTION_DOT":1.22e-5,"MEAN_MOTION_DDOT":0},{"OBJECT_NAME":"SL-6 R/B(2)","OBJECT_ID":"1990-055D","EPOCH":"2026-04-15T06:43:44.801760","MEAN_MOTION":15.03759613,"ECCENTRICITY":0.00307729,"INCLINATION":62.7806,"RA_OF_ASC_NODE":129.4011,"ARG_OF_PERICENTER":354.8987,"MEAN_ANOMALY":5.1794,"EPHEMERIS_TYPE":0,"CLASSIFICATION_TYPE":"U","NORAD_CAT_ID":20666,"ELEMENT_SET_NO":999,"REV_AT_EPOCH":94369,"BSTAR":7.2112003e-5,"MEAN_MOTION_DOT":7.99e-6,"MEAN_MOTION_DDOT":0},{"OBJECT_NAME":"SL-8 R/B","OBJECT_ID":"1990-078B","EPOCH":"2026-04-15T06:02:33.006624","MEAN_MOTION":14.9006547,"ECCENTRICITY":0.0356647,"INCLINATION":82.9052,"RA_OF_ASC_NODE":218.4003,"ARG_OF_PERICENTER":250.498,"MEAN_ANOMALY":105.74,"EPHEMERIS_TYPE":0,"CLASSIFICATION_TYPE":"U","NORAD_CAT_ID":20775,"ELEMENT_SET_NO":999,"REV_AT_EPOCH":81474,"BSTAR":0.00023484952,"MEAN_MOTION_DOT":7.968e-5,"MEAN_MOTION_DDOT":0}]
